GPS BIIR-08             
1 27663U 03005A   26118.26167634 -.00000036  00000+0  00000+0 0  9993
2 27663  54.8922 216.9521 0148183  52.9653 318.2593  2.00563264170318
GPS BIIR-11             
1 28190U 04009A   26118.33075000 -.00000063  00000+0  00000+0 0  9997
2 28190  54.8723 277.7002 0113771 170.9168  44.5263  2.00556338161945
GPS BIIR-13             
1 28474U 04045A   26118.19586576 -.00000079  00000+0  00000+0 0  9998
2 28474  55.1646 326.9095 0170064 315.0428 228.2477  2.00553629157422
GPS BIIR-14M            
1 28874U 05038A   26117.49126108 -.00000058  00000+0  00000+0 0  9995
2 28874  54.9208 275.2219 0127780 295.8558  59.9369  2.00569188150819
METEOSAT-9 (MSG-2)      
1 28912U 05049B   26117.92908240  .00000120  00000+0  00000+0 0  9992
2 28912   9.2511  54.6535 0000570 348.6764 192.7183  1.00275686  6495
GPS BIIR-16M            
1 29601U 06052A   26117.06302183 -.00000045  00000+0  00000+0 0  9999
2 29601  54.9435 216.0323 0086401  90.2785 270.7216  2.00555251142385
GPS BIIR-17M            
1 32260U 07047A   26117.86663578 -.00000006  00000+0  00000+0 0  9992
2 32260  54.0594  82.1384 0164817  86.5139 275.3442  2.00557818135807
GPS BIIR-18M            
1 32384U 07062A   26117.93019454 -.00000060  00000+0  00000+0 0  9992
2 32384  55.0734 276.1715 0034604 162.4621  10.4807  2.00556971134502
GOES 14                 
1 35491U 09033A   26118.23885512 -.00000061  00000+0  00000+0 0  9995
2 35491   1.5631  83.6141 0001823 317.1415  71.2292  1.00117049  6090
GOES 15                 
1 36411U 10008A   26118.14646808  .00000016  00000+0  00000+0 0  9994
2 36411   1.1458  83.7512 0004098  23.6691 224.6929  1.00272766 59133
GSAT0101 (GALILEO-PFM)  
1 37846U 11060A   26116.22899249 -.00000091  00000+0  00000+0 0  9996
2 37846  57.0096 343.1709 0003765  27.2500 332.8105  1.70475694 90230
GSAT0102 (GALILEO-FM2)  
1 37847U 11060B   26118.20077221 -.00000091  00000+0  00000+0 0  9995
2 37847  57.0102 343.1178 0004662   9.4361 166.3185  1.70476005 90272
LUCH 5A                 
1 37951U 11074B   26118.18558659 -.00000051  00000+0  00000+0 0  9998
2 37951   8.6298  74.5284 0002776 307.7382  67.6386  1.00273265 52551
METEOSAT-10 (MSG-3)     
1 38552U 12035B   26118.06266106 -.00000011  00000+0  00000+0 0  9990
2 38552   4.5556  61.2327 0002119 315.0050 222.5230  1.00268429 50359
SARSAT 13 (METOP-B)     
1 38771U 12049A   26118.21161983  .00000120  00000+0  74630-4 0  9997
2 38771  98.6546 170.6978 0003441 120.7027 239.4490 14.21433734706168
GPS BIIF-3              
1 38833U 12053A   26114.47103720  .00000044  00000+0  00000+0 0  9990
2 38833  53.5744 145.7999 0177947  65.1371 296.7622  2.00566566 98363
GSAT0103 (GALILEO-FM3)  
1 38857U 12055A   26117.44256972  .00000042  00000+0  00000+0 0  9994
2 38857  55.7758 102.9364 0005897 295.8916  64.0397  1.70473409 84145
GPS BIIF-4              
1 39166U 13023A   26116.82952263 -.00000054  00000+0  00000+0 0  9995
2 39166  54.5458 271.0644 0141960  50.6637 310.5521  2.00563775 94858
INSAT-3D                
1 39216U 13038B   26118.30224784 -.00000343  00000+0  00000+0 0  9993
2 39216   1.7990  83.1390 0001509 287.0459  84.4266  1.00271412 46584
GPS BIIF-5              
1 39533U 14008A   26116.83025520  .00000062  00000+0  00000+0 0  9993
2 39533  53.6447 151.4146 0083806 230.1366 129.1908  2.00556502 88654
LUCH 5V                 
1 39727U 14023A   26118.29531448 -.00000272  00000+0  00000+0 0  9992
2 39727   5.0130  70.2350 0002365 341.2638   5.8503  1.00271497 43851
GPS BIIF-6              
1 39741U 14026A   26118.10323274 -.00000081  00000+0  00000+0 0  9995
2 39741  56.5212 333.4675 0038906 326.7204  33.0737  2.00564733 87534
GPS BIIF-7              
1 40105U 14045A   26118.19378400  .00000014  00000+0  00000+0 0  9997
2 40105  55.3213  90.4553 0031693 119.1069 241.1918  2.00555100 85070
GSAT0201 (GALILEO 5)    
1 40128U 14050A   26116.13529482 -.00000064  00000+0  00000+0 0  9994
2 40128  48.9332 275.5670 1666333 177.3572 183.6448  1.85519973 77352
GSAT0202 (GALILEO 6)    
1 40129U 14050B   26117.46897913 -.00000077  00000+0  00000+0 0  9993
2 40129  48.9487 274.5974 1667632 178.1406 182.5618  1.85520656 79548
GPS BIIF-8              
1 40294U 14068A   26117.07053014 -.00000103  00000+0  00000+0 0  9998
2 40294  56.9545  32.9243 0065293  68.8787 291.8193  2.00573025 84185
GLONASS-K 2             
1 40315U 14075A   26118.08998238  .00000012  00000+0  00000+0 0  9996
2 40315  63.6139 192.1057 0021888 210.1179 149.8130  2.13101316 88781
GPS BIIF-9              
1 40534U 15013A   26118.20224825 -.00000021  00000+0  00000+0 0  9991
2 40534  53.1740 206.2449 0108893  39.9890 320.8399  2.00554342 80829
GSAT0203 (GALILEO 7)    
1 40544U 15017A   26117.18011045 -.00000091  00000+0  00000+0 0  9997
2 40544  56.8028 342.9865 0003398 299.9003  60.1078  1.70475940 68339
GSAT0204 (GALILEO 8)    
1 40545U 15017B   26115.08949468 -.00000090  00000+0  00000+0 0  9993
2 40545  56.8095 343.0621 0001552 296.0698  63.9535  1.70475480 31343
GPS BIIF-10             
1 40730U 15033A   26117.86311922 -.00000063  00000+0  00000+0 0  9993
2 40730  54.0235 269.1599 0115002  29.9012 330.7111  2.00558830 78987
METEOSAT-11 (MSG-4)     
1 40732U 15034A   26118.27841441  .00000059  00000+0  00000+0 0  9990
2 40732   3.0770  71.3671 0001579 345.0295 269.6231  1.00264603  6715
GSAT0205 (GALILEO 9)    
1 40889U 15045A   26115.63255192 -.00000038  00000+0  00000+0 0  9992
2 40889  54.9613 223.1764 0005159 266.9978  92.9342  1.67410754 66085
GSAT0206 (GALILEO 10)   
1 40890U 15045B   26115.66468946 -.00000038  00000+0  00000+0 0  9990
2 40890  54.9612 223.0540 0002188  38.1287 321.8788  1.70473961 66146
GPS BIIF-11             
1 41019U 15062A   26117.92092671 -.00000106  00000+0  00000+0 0  9998
2 41019  56.9277  32.7479 0111254 231.5049 127.4976  2.00567062 76820
ELEKTRO-L 2             
1 41105U 15074A   26118.05980105 -.00000120  00000+0  00000+0 0  9996
2 41105   6.5708  71.1274 0002271 259.2657 252.6594  1.00270814 38006
GSAT0209 (GALILEO 12)   
1 41174U 15079A   26115.24610591  .00000046  00000+0  00000+0 0  9990
2 41174  55.7962 102.7123 0005679 329.0159  30.9454  1.70474059 63871
GSAT0208 (GALILEO 11)   
1 41175U 15079B   26116.05295675  .00000046  00000+0  00000+0 0  9993
2 41175  55.7944 102.6873 0005050 330.1145  29.8515  1.70473954 64301
GPS BIIF-12             
1 41328U 16007A   26118.00881632  .00000019  00000+0  00000+0 0  9996
2 41328  55.4937  91.4475 0096125 247.1072 111.8586  2.00554126 74836
GSAT0211 (GALILEO 14)   
1 41549U 16030A   26114.41727357 -.00000030  00000+0  00000+0 0  9995
2 41549  55.1119 223.1731 0002524 359.1559   0.8397  1.70474087 61750
GSAT0210 (GALILEO 13)   
1 41550U 16030B   26115.26112393 -.00000036  00000+0  00000+0 0  9995
2 41550  55.1104 223.1480 0002810 225.6811 134.2889  1.70474037 61767
INSAT-3DR               
1 41752U 16054A   26118.00598084 -.00000084  00000+0  00000+0 0  9998
2 41752   0.1181  86.3441 0011479 195.0220  10.7629  1.00271772 35313
GSAT0207 (GALILEO 15)   
1 41859U 16069A   26116.71252252  .00000043  00000+0  00000+0 0  9996
2 41859  55.4671 102.5088 0005912 317.1917  42.7559  1.70473995 58524
GSAT0212 (GALILEO 16)   
1 41860U 16069B   26115.97942788  .00000045  00000+0  00000+0 0  9997
2 41860  55.4638 102.5243 0004656 340.7517  19.2254  1.70474171 58768
GSAT0213 (GALILEO 17)   
1 41861U 16069C   26116.93335348  .00000042  00000+0  00000+0 0  9990
2 41861  55.4672 102.5058 0005848 302.6930  57.2437  1.70474535 58647
GSAT0214 (GALILEO 18)   
1 41862U 16069D   26117.07947230  .00000042  00000+0  00000+0 0  9996
2 41862  55.4657 102.4944 0004907 307.7514  52.1969  1.70474264 58770
GOES 16                 
1 41866U 16071A   26118.19419648 -.00000097  00000+0  00000+0 0  9995
2 41866   0.2163  85.3333 0001446 254.5067 201.5254  1.00271376 34607
GSAT-17                 
1 42815U 17040B   26118.10928066  .00000000  00000+0  00000+0 0  9990
2 42815   0.0223 248.4911 0003963  71.8826  28.5834  1.00271136 32287
GSAT0215 (GALILEO 19)   
1 43055U 17079A   26113.46347810 -.00000022  00000+0  00000+0 0  9990
2 43055  55.0907 223.0118 0001428 264.4741  95.5096  1.70474699 52058
GSAT0216 (GALILEO 20)   
1 43056U 17079B   26117.86070840 -.00000036  00000+0  00000+0 0  9990
2 43056  55.0886 222.8909 0002805 283.5191  76.4419  1.70474918 52142
GSAT0217 (GALILEO 21)   
1 43057U 17079C   26116.32174354 -.00000039  00000+0  00000+0 0  9999
2 43057  55.0878 222.9311 0002278 305.0014  54.9682  1.70474773 52108
GSAT0218 (GALILEO 22)   
1 43058U 17079D   26117.12838290 -.00000039  00000+0  00000+0 0  9995
2 43058  55.0875 222.9066 0003133 277.9474  82.0079  1.70474784 52149
GOES 17                 
1 43226U 18022A   26118.16774573 -.00000188  00000+0  00000+0 0  9994
2 43226   0.8113  86.3855 0000670 284.7114 175.9477  1.00271907 29926
GSAT0221 (GALILEO 25)   
1 43564U 18060A   26114.09926935 -.00000088  00000+0  00000+0 0  9999
2 43564  57.1855 343.2419 0003847 321.5085  38.5036  1.70475641 48245
GSAT0222 (GALILEO 26)   
1 43565U 18060B   26115.49200276 -.00000090  00000+0  00000+0 0  9991
2 43565  57.1892 343.2075 0002413 289.5902  70.4237  1.70475419 48313
GSAT0219 (GALILEO 23)   
1 43566U 18060C   26116.88619685 -.00000091  00000+0  00000+0 0  9995
2 43566  57.1868 343.1712 0003219 357.9196   2.1210  1.70475801 48312
GSAT0220 (GALILEO 24)   
1 43567U 18060D   26117.10722407 -.00000091  00000+0  00000+0 0  9999
2 43567  57.1835 343.1645 0003171  19.9224 340.1322  1.70475700 48302
BEIDOU-3 M13            
1 43622U 18072A   26117.52501242 -.00000050  00000+0  00000+0 0  9997
2 43622  56.5829  64.3302 0008837 318.7751  41.1257  1.86230927 51712
BEIDOU-3 M14            
1 43623U 18072B   26117.92741429 -.00000054  00000+0  00000+0 0  9999
2 43623  56.5852  64.3112 0006932 342.9633  16.9797  1.86230949 51713
